OBJECT_NAME,OBJECT_ID,EPOCH,MEAN_MOTION,ECCENTRICITY,INCLINATION,RA_OF_ASC_NODE,ARG_OF_PERICENTER,MEAN_ANOMALY,EPHEMERIS_TYPE,CLASSIFICATION_TYPE,NORAD_CAT_ID,ELEMENT_SET_NO,REV_AT_EPOCH,BSTAR,MEAN_MOTION_DOT,MEAN_MOTION_DDOT
SES-14,2018-012B,2026-07-12T20:07:44.918112,1.00270323,.0000738,0.0123,24.0910,88.5964,72.4693,0,U,43175,999,728,0,-.279E-5,0
GOES 17,2018-022A,2026-07-12T19:55:46.065792,1.00271416,.0000542,1.0003,85.2906,86.2371,328.6370,0,U,43226,999,3068,0,-.184E-5,0
HISPASAT 30W-6,2018-023A,2026-07-12T15:04:50.385216,1.00270732,.0005108,0.0409,46.7873,43.2822,36.6824,0,U,43228,999,3066,0,-.216E-5,0
SUPERBIRD-B3,2018-033A,2026-07-12T19:24:49.034304,1.00270593,.0000971,0.0180,3.1424,121.6122,259.1558,0,U,43271,999,3031,0,-.93E-6,0
HYLAS 4,2018-033B,2026-07-12T15:03:35.504064,1.00270761,.0000742,0.0163,308.3224,191.4351,343.1587,0,U,43272,999,3032,0,-.233E-5,0
IRNSS-1I,2018-035A,2026-07-06T20:05:50.528832,1.00279237,.00180874,28.7973,73.8917,180.4002,27.0525,0,U,43286,999,3027,0,.79E-6,0
USA 283,2018-036A,2026-07-09T10:52:04.238976,1.00270107,.0000871,0.0041,71.7274,148.0481,4.7270,0,U,43339,999,2551,0,-.304E-5,0
COSMOS 2526,2018-037A,2026-07-12T20:57:51.466176,1.00269675,.000071,0.0324,85.0169,161.1452,127.1187,0,U,43432,999,3021,0,-.346E-5,0
APSTAR-6C,2018-041A,2026-07-12T20:59:28.812192,1.00269562,.0000595,0.0226,357.5903,283.9200,98.1225,0,U,43450,999,3006,0,-.319E-5,0
BANGABANDHUSAT-1,2018-044A,2026-07-12T19:12:35.206272,1.00271278,.0001646,0.0171,93.1178,31.6946,213.1167,0,U,43463,999,2996,0,-.363E-5,0
SES-12,2018-049A,2026-07-12T19:05:43.364256,1.00271689,.0000869,0.0103,11.6516,252.1588,48.3036,0,U,43488,999,2967,0,-.27E-5,0
FENGYUN 2H,2018-050A,2026-07-12T21:05:15.443808,1.00267406,.0002291,3.0937,78.7686,133.2585,114.2193,0,U,43491,999,2969,0,-.131E-5,0
BEIDOU-2 IGSO-7,2018-057A,2026-07-01T21:23:21.693984,1.00246939,.01049468,55.1981,162.9292,237.8611,308.6338,0,U,43539,999,2927,0,-.33E-6,0
TELSTAR 19V,2018-059A,2026-07-12T20:03:22.835808,1.00269790,.0002833,0.0335,160.3402,332.0001,36.2287,0,U,43562,999,2940,0,-.28E-5,0
TELKOM 4 (MERAH PUTIH),2018-064A,2026-07-12T19:09:28.005120,1.00270055,.0000985,0.0173,78.3646,40.0545,207.6313,0,U,43587,999,2913,0,-.344E-5,0
TELSTAR 18V,2018-069A,2026-07-12T19:17:57.191424,1.00271734,.0001672,0.0155,337.3900,133.8600,246.9258,0,U,43611,999,2889,0,-.294E-5,0
AZERSPACE 2 (IS-38),2018-074A,2026-07-12T18:51:30.928032,1.00269539,.0001246,0.0246,38.9461,87.7536,131.9735,0,U,43632,999,2870,0,0,0
HORIZONS-3E,2018-074B,2026-07-12T17:44:10.385376,1.00271137,.0000923,0.0478,221.1039,61.2279,83.3374,0,U,43633,999,2859,0,-.31E-6,0
AEHF-4 (USA 288),2018-079A,2026-07-12T20:02:00.468096,1.00277069,.005856,1.4391,6.0762,354.0701,163.4769,0,U,43651,999,2855,0,-.276E-5,0
BEIDOU-3 G1,2018-085A,2026-07-12T09:25:58.717344,1.00272641,.00080758,2.9285,96.7040,355.6390,139.3891,0,U,43683,999,2831,0,-.111E-5,0
GSAT-29,2018-089A,2026-07-12T17:11:43.136736,1.00275024,.0002955,0.0544,245.2919,199.1560,159.1852,0,U,43698,999,2804,0,.84E-6,0
ES'HAIL 2,2018-090A,2026-07-12T18:55:38.668800,1.00269701,.0002219,0.0292,50.9048,109.7092,79.7680,0,U,43700,999,2793,0,0,0
GEO-KOMPSAT-2A,2018-100A,2026-07-12T17:32:33.997056,1.00270920,.0001939,0.0256,113.3303,348.5543,220.1415,0,U,43823,999,2788,0,-.344E-5,0
GSAT-11,2018-100B,2026-07-12T20:42:21.668256,1.00270889,.0007638,0.0578,258.7237,198.6592,217.9617,0,U,43824,999,2773,0,-.78E-6,0
GSAT-7A,2018-105A,2026-07-12T20:32:21.601248,1.00270421,.0001629,0.0785,91.7895,18.3073,191.4834,0,U,43864,999,2770,0,.26E-6,0
COSMOS 2533,2018-107A,2026-07-12T21:15:38.706624,1.00270542,.0001015,0.0411,119.4489,127.5662,72.6488,0,U,43867,999,2770,0,-.39E-6,0
TJS-3,2018-110A,2026-07-12T16:55:22.507104,1.00272312,.00025,2.6080,80.1842,89.7413,162.7272,0,U,43874,999,2767,0,-.219E-5,0
ZHONGXING-2D,2019-001A,2026-07-12T20:58:21.420192,1.00271902,.0000412,0.0574,240.0121,89.5110,45.8058,0,U,43920,999,5433,0,-.338E-5,0
HELLAS-SAT 4 & SGS-1,2019-007A,2026-07-12T18:47:38.726304,1.00269550,.000559,0.0668,126.0189,20.4515,105.1185,0,U,44034,999,2762,0,.152E-5,0
GSAT-31,2019-007B,2026-07-12T17:09:35.841024,1.00269635,.0000798,0.0217,80.0009,154.7358,1.1414,0,U,44035,999,2722,0,.125E-5,0
NUSANTARA SATU,2019-009A,2026-07-12T19:20:19.462848,1.00270533,.0004522,0.0324,126.3686,2.0791,238.3308,0,U,44048,999,2702,0,-.235E-5,0
ZHONGXING-6C,2019-012A,2026-07-12T20:58:28.907616,1.00271938,.001454,0.0850,73.6823,339.6648,322.4887,0,U,44067,999,2699,0,-.336E-5,0
WGS 10 (USA 291),2019-014A,2026-07-12T18:55:51.809376,1.00271355,.0000278,0.0181,42.6545,229.0271,3.2629,0,U,44071,999,2687,0,.46E-6,0
TIANLIAN 2-01,2019-017A,2026-07-12T21:08:06.749088,1.00270808,.0001446,0.6037,83.0593,80.9375,160.8166,0,U,44076,999,2690,0,-.108E-5,0
ARABSAT-6A,2019-021A,2026-07-12T18:47:38.726304,1.00277288,.0001383,0.0475,19.1091,251.5405,332.4807,0,U,44186,999,2641,0,.153E-5,0
BEIDOU-3 IGSO-1,2019-023A,2026-07-12T11:43:39.425664,1.00283752,.00256738,58.7307,37.3896,224.1023,323.8830,0,U,44204,999,746,0,-.205E-5,0
BEIDOU-2 G8,2019-027A,2026-07-12T21:02:36.013344,1.00272401,.0009753,1.7196,74.5007,282.3170,34.1148,0,U,44231,999,2633,0,-.25E-5,0
YAMAL 601,2019-031A,2026-07-12T21:31:38.606304,1.00270147,.0002236,0.0149,71.6567,34.6367,196.3990,0,U,44307,999,2618,0,.119E-5,0
AT&T T-16,2019-034A,2026-07-12T14:44:37.323168,1.00272476,.0000745,0.0149,54.8427,274.3761,81.5869,0,U,44333,999,2588,0,-.115E-5,0
EUTELSAT 7C,2019-034B,2026-07-12T15:15:19.378944,1.00270349,.0003126,0.0763,179.2647,278.0826,69.0199,0,U,44334,999,709,0,.48E-6,0
BEIDOU-3 IGSO-2,2019-035A,2026-07-12T19:12:35.206272,1.00258293,.0039625,55.2503,158.6383,216.5497,322.2986,0,U,44337,999,2592,0,-.121E-5,0
COSMOS 2539,2019-048A,2026-07-12T20:24:45.239040,1.00271091,.0000336,0.0363,99.6007,23.0777,126.2344,0,U,44457,999,2548,0,.8E-6,0
EDRS-C,2019-049A,2026-07-12T19:19:19.560000,1.00271659,.0000864,0.0145,94.1833,34.4136,234.4203,0,U,44475,999,2546,0,-.263E-5,0
INTELSAT 39 (IS-39),2019-049B,2026-07-12T20:12:21.576096,1.00269749,.0000951,0.0257,43.0319,283.7441,328.9973,0,U,44476,999,2538,0,0,0
AMOS-17,2019-050A,2026-07-12T20:16:38.845920,1.00272604,.0001286,0.0151,6.0862,112.5213,133.2670,0,U,44479,999,2544,0,.108E-5,0
AEHF-5 (USA 292),2019-051A,2026-07-12T20:47:36.559968,1.00274459,.0065002,1.4336,338.2009,357.7071,359.7816,0,U,44481,999,2551,0,-.257E-5,0
EUTELSAT 5 WEST B,2019-067A,2026-07-12T15:11:57.202080,1.00271449,.0002972,0.0627,352.9540,120.2207,40.3302,0,U,44624,999,2469,0,-.42E-6,0
MEV-1,2019-067B,2026-06-16T22:18:40.152960,1.00269616,.00027946,0.8740,268.9828,179.8034,307.2103,0,U,44625,999,6174,0,-.149E-5,0
TJS-4,2019-070A,2026-07-12T19:02:28.674816,1.00269404,.0003184,0.0778,87.0422,320.6459,252.1357,0,U,44637,999,2479,0,-.17E-5,0
TIBA-1,2019-080A,2026-07-12T18:47:38.726304,1.00269528,.0001843,0.0507,9.1707,116.7481,122.1418,0,U,44800,999,2431,0,.155E-5,0
INMARSAT GX5,2019-080B,2026-07-12T19:27:38.883744,1.00272757,.0001958,0.0437,35.1203,73.8137,124.7013,0,U,44801,999,704,0,.74E-6,0
JCSAT-18 (KACIFIC 1),2019-091A,2026-07-12T17:38:48.400224,1.00274161,.0000321,0.0477,228.2345,13.3547,103.7350,0,U,44868,999,2426,0,-.2E-5,0
ELEKTRO-L 3,2019-095A,2026-07-12T21:15:38.706624,1.00271147,.0001132,0.3195,82.1383,19.1498,224.3824,0,U,44903,999,2396,0,-.98E-6,0
SHIJIAN-20 (SJ-20),2019-097A,2026-07-12T18:51:23.438880,1.00267912,.0015278,4.9812,74.7500,57.2403,126.3412,0,U,44910,999,2395,0,.131E-5,0
TJS-5,2020-002A,2026-07-12T21:47:43.196640,1.00269169,.0007649,0.0573,73.9593,340.1128,311.1486,0,U,44978,999,2396,0,-.343E-5,0
GSAT-30,2020-005A,2026-07-12T19:02:21.187392,1.00271002,.0003248,0.0416,92.1236,2.3260,204.8122,0,U,45026,999,2376,0,-.165E-5,0
EUTELSAT KONNECT,2020-005B,2026-07-12T15:15:19.378944,1.00269257,.0001854,0.0685,93.4330,145.2565,287.8722,0,U,45027,999,2459,0,.49E-6,0
JCSAT-17,2020-013A,2026-07-12T19:17:27.239136,1.00269835,.0002833,5.3921,357.1045,128.9286,230.0312,0,U,45245,999,2348,0,-.312E-5,0
GEO-KOMPSAT-2B,2020-013B,2026-07-12T17:32:33.997056,1.00271050,.0000741,0.0499,225.2598,12.1870,84.5702,0,U,45246,999,2353,0,-.344E-5,0
BEIDOU-3 G2,2020-017A,2026-07-12T21:07:48.180864,1.00269369,.0001993,2.9134,47.6837,59.9091,220.1640,0,U,45344,999,2351,0,-.143E-5,0
AEHF-6 (USA 298),2020-022B,2026-07-12T19:18:04.677984,1.00272040,.0042083,2.4937,301.4715,15.3661,41.1373,0,U,45465,999,2327,0,-.295E-5,0
BEIDOU-3 G3,2020-040A,2026-07-12T20:52:44.457600,1.00264988,.0001719,2.5068,67.4720,326.6452,320.2587,0,U,45807,999,2232,0,-.356E-5,0
APSTAR-6D,2020-045A,2026-07-12T22:42:07.651296,1.00269020,.0001184,0.0457,90.8536,24.7149,289.8027,0,U,45863,999,2211,0,-.319E-5,0
KOREASAT 116,2020-048A,2026-07-12T19:11:50.278272,1.00267778,.0000736,0.0132,35.6163,88.1121,211.1082,0,U,45920,999,2189,0,-.362E-5,0
EXPRESS 103,2020-053A,2026-07-12T21:35:16.999584,1.00268800,.0000795,0.0317,267.7863,188.6254,254.6830,0,U,45985,999,2190,0,-.281E-5,0
EXPRESS 80,2020-053B,2026-07-12T23:16:42.034080,1.00271434,.0001769,0.0184,27.7662,172.7132,159.5134,0,U,45986,999,2188,0,0,0
BSAT-4B,2020-056A,2026-07-12T19:09:57.957408,1.00269386,.0004145,0.0459,185.5629,305.9198,196.5140,0,U,46112,999,2164,0,-.35E-5,0
MEV-2,2020-056B,2026-07-12T20:21:00.598176,1.00272095,.0000558,0.0534,253.1014,346.0698,355.8081,0,U,46113,999,8097,0,-.12E-6,0
GALAXY 30 (G-30),2020-056C,2026-07-12T18:03:01.077984,1.00271051,.0001937,0.0046,97.9283,16.7243,321.7326,0,U,46114,999,2154,0,.37E-6,0
GAOFEN-13 01,2020-071A,2026-07-12T20:55:06.730752,1.00266773,.0045227,0.4619,86.1631,120.5910,156.0054,0,U,46610,999,2117,0,-.364E-5,0
TIANTONG-1 2,2020-082A,2026-07-12T20:56:51.563328,1.00267656,.0001309,0.7605,331.3086,144.2140,254.3666,0,U,46916,999,2091,0,-.356E-5,0
LUCAS (JDRS-1),2020-089A,2026-07-12T19:04:35.971392,1.00271203,.0001611,0.0356,281.2150,182.0368,204.3831,0,U,47202,999,2067,0,-.236E-5,0
SXM-7,2020-096A,2026-07-12T19:57:00.946080,1.00271489,.0003435,0.0231,96.6324,22.7716,25.4129,0,U,47240,999,770,0,-.206E-5,0
